[{"OBJECT_NAME":"ONEWEB-0288","OBJECT_ID":"2021-075D","EPOCH":"2026-03-05T02:34:48.482112","MEAN_MOTION":13.12441754,"ECCENTRICITY":0.00019079,"INCLINATION":87.8997,"RA_OF_ASC_NODE":11.3112,"ARG_OF_PERICENTER":78.0959,"MEAN_ANOMALY":282.0383,"EPHEMERIS_TYPE":0,"CLASSIFICATION_TYPE":"U","NORAD_CAT_ID":49078,"ELEMENT_SET_NO":999,"REV_AT_EPOCH":22153,"BSTAR":-0.0011833437,"MEAN_MOTION_DOT":-4.13e-6,"MEAN_MOTION_DDOT":0},{"OBJECT_NAME":"ONEWEB-0289","OBJECT_ID":"2021-075E","EPOCH":"2026-03-05T05:58:07.679136","MEAN_MOTION":13.17651076,"ECCENTRICITY":0.00023113,"INCLINATION":87.9148,"RA_OF_ASC_NODE":26.5183,"ARG_OF_PERICENTER":85.1833,"MEAN_ANOMALY":274.9562,"EPHEMERIS_TYPE":0,"CLASSIFICATION_TYPE":"U","NORAD_CAT_ID":49079,"ELEMENT_SET_NO":999,"REV_AT_EPOCH":22051,"BSTAR":0.00014710558,"MEAN_MOTION_DOT":7.0e-7,"MEAN_MOTION_DDOT":0},{"OBJECT_NAME":"ONEWEB-0290","OBJECT_ID":"2021-075F","EPOCH":"2026-03-05T07:08:50.204256","MEAN_MOTION":13.17647434,"ECCENTRICITY":0.00023328,"INCLINATION":87.9152,"RA_OF_ASC_NODE":26.4767,"ARG_OF_PERICENTER":91.0594,"MEAN_ANOMALY":269.0804,"EPHEMERIS_TYPE":0,"CLASSIFICATION_TYPE":"U","NORAD_CAT_ID":49080,"ELEMENT_SET_NO":999,"REV_AT_EPOCH":21993,"BSTAR":-3.107618e-5,"MEAN_MOTION_DOT":1.0e-8,"MEAN_MOTION_DDOT":0},{"OBJECT_NAME":"ONEWEB-0291","OBJECT_ID":"2021-075G","EPOCH":"2026-03-05T06:46:57.290592","MEAN_MOTION":13.17649555,"ECCENTRICITY":0.00021305,"INCLINATION":87.9153,"RA_OF_ASC_NODE":26.488,"ARG_OF_PERICENTER":74.4497,"MEAN_ANOMALY":285.6869,"EPHEMERIS_TYPE":0,"CLASSIFICATION_TYPE":"U","NORAD_CAT_ID":49081,"ELEMENT_SET_NO":999,"REV_AT_EPOCH":21992,"BSTAR":6.3071909e-5,"MEAN_MOTION_DOT":3.7e-7,"MEAN_MOTION_DDOT":0},{"OBJECT_NAME":"ONEWEB-0293","OBJECT_ID":"2021-075H","EPOCH":"2026-03-05T07:23:24.656928","MEAN_MOTION":13.1764873,"ECCENTRICITY":0.00020401,"INCLINATION":87.9141,"RA_OF_ASC_NODE":26.495,"ARG_OF_PERICENTER":82.234,"MEAN_ANOMALY":277.9023,"EPHEMERIS_TYPE":0,"CLASSIFICATION_TYPE":"U","NORAD_CAT_ID":49082,"ELEMENT_SET_NO":999,"REV_AT_EPOCH":21995,"BSTAR":5.8297235e-5,"MEAN_MOTION_DOT":3.6e-7,"MEAN_MOTION_DDOT":0},{"OBJECT_NAME":"ONEWEB-0294","OBJECT_ID":"2021-075J","EPOCH":"2026-03-05T06:24:07.674336","MEAN_MOTION":13.12441976,"ECCENTRICITY":0.00021614,"INCLINATION":87.8997,"RA_OF_ASC_NODE":11.2819,"ARG_OF_PERICENTER":83.4153,"MEAN_ANOMALY":276.7222,"EPHEMERIS_TYPE":0,"CLASSIFICATION_TYPE":"U","NORAD_CAT_ID":49083,"ELEMENT_SET_NO":999,"REV_AT_EPOCH":22094,"BSTAR":-0.00090366437,"MEAN_MOTION_DOT":-3.12e-6,"MEAN_MOTION_DDOT":0},{"OBJECT_NAME":"ONEWEB-0295","OBJECT_ID":"2021-075K","EPOCH":"2026-03-05T07:22:12.121536","MEAN_MOTION":13.17649504,"ECCENTRICITY":0.00020555,"INCLINATION":87.914,"RA_OF_ASC_NODE":26.4999,"ARG_OF_PERICENTER":72.541,"MEAN_ANOMALY":287.5946,"EPHEMERIS_TYPE":0,"CLASSIFICATION_TYPE":"U","NORAD_CAT_ID":49084,"ELEMENT_SET_NO":999,"REV_AT_EPOCH":21991,"BSTAR":-4.2460339e-5,"MEAN_MOTION_DOT":-4.0e-8,"MEAN_MOTION_DDOT":0},{"OBJECT_NAME":"ONEWEB-0296","OBJECT_ID":"2021-075L","EPOCH":"2026-03-05T05:54:51.269472","MEAN_MOTION":13.12441268,"ECCENTRICITY":0.00020572,"INCLINATION":87.9003,"RA_OF_ASC_NODE":11.2893,"ARG_OF_PERICENTER":72.7822,"MEAN_ANOMALY":287.3532,"EPHEMERIS_TYPE":0,"CLASSIFICATION_TYPE":"U","NORAD_CAT_ID":49085,"ELEMENT_SET_NO":999,"REV_AT_EPOCH":22094,"BSTAR":-0.00031234562,"MEAN_MOTION_DOT":-1.0e-6,"MEAN_MOTION_DDOT":0},{"OBJECT_NAME":"ONEWEB-0297","OBJECT_ID":"2021-075M","EPOCH":"2026-03-05T06:38:46.367520","MEAN_MOTION":13.12443032,"ECCENTRICITY":0.00018453,"INCLINATION":87.8988,"RA_OF_ASC_NODE":11.3089,"ARG_OF_PERICENTER":76.5305,"MEAN_ANOMALY":283.6029,"EPHEMERIS_TYPE":0,"CLASSIFICATION_TYPE":"U","NORAD_CAT_ID":49086,"ELEMENT_SET_NO":999,"REV_AT_EPOCH":22155,"BSTAR":8.4949314e-5,"MEAN_MOTION_DOT":4.3e-7,"MEAN_MOTION_DDOT":0},{"OBJECT_NAME":"ONEWEB-0298","OBJECT_ID":"2021-075N","EPOCH":"2026-03-05T03:49:45.536448","MEAN_MOTION":13.17650115,"ECCENTRICITY":0.00017181,"INCLINATION":87.9141,"RA_OF_ASC_NODE":26.5259,"ARG_OF_PERICENTER":80.4423,"MEAN_ANOMALY":279.6903,"EPHEMERIS_TYPE":0,"CLASSIFICATION_TYPE":"U","NORAD_CAT_ID":49087,"ELEMENT_SET_NO":999,"REV_AT_EPOCH":21992,"BSTAR":-8.2315037e-5,"MEAN_MOTION_DOT":-1.9e-7,"MEAN_MOTION_DDOT":0},{"OBJECT_NAME":"ONEWEB-0299","OBJECT_ID":"2021-075P","EPOCH":"2026-03-04T09:38:30.240096","MEAN_MOTION":13.17649798,"ECCENTRICITY":0.00018914,"INCLINATION":87.9154,"RA_OF_ASC_NODE":26.646,"ARG_OF_PERICENTER":75.7699,"MEAN_ANOMALY":284.3642,"EPHEMERIS_TYPE":0,"CLASSIFICATION_TYPE":"U","NORAD_CAT_ID":49088,"ELEMENT_SET_NO":999,"REV_AT_EPOCH":21980,"BSTAR":-2.2772424e-5,"MEAN_MOTION_DOT":4.0e-8,"MEAN_MOTION_DDOT":0},{"OBJECT_NAME":"ONEWEB-0300","OBJECT_ID":"2021-075Q","EPOCH":"2026-03-05T06:27:47.464704","MEAN_MOTION":13.12444051,"ECCENTRICITY":0.0001437,"INCLINATION":87.9001,"RA_OF_ASC_NODE":11.2781,"ARG_OF_PERICENTER":79.1432,"MEAN_ANOMALY":280.9858,"EPHEMERIS_TYPE":0,"CLASSIFICATION_TYPE":"U","NORAD_CAT_ID":49089,"ELEMENT_SET_NO":999,"REV_AT_EPOCH":22157,"BSTAR":-0.00078160077,"MEAN_MOTION_DOT":-2.68e-6,"MEAN_MOTION_DDOT":0},{"OBJECT_NAME":"ONEWEB-0301","OBJECT_ID":"2021-075R","EPOCH":"2026-03-05T06:04:35.571936","MEAN_MOTION":13.12443264,"ECCENTRICITY":0.00014298,"INCLINATION":87.8999,"RA_OF_ASC_NODE":11.2816,"ARG_OF_PERICENTER":83.4975,"MEAN_ANOMALY":276.6316,"EPHEMERIS_TYPE":0,"CLASSIFICATION_TYPE":"U","NORAD_CAT_ID":49090,"ELEMENT_SET_NO":999,"REV_AT_EPOCH":22093,"BSTAR":-0.00082506539,"MEAN_MOTION_DOT":-2.84e-6,"MEAN_MOTION_DDOT":0},{"OBJECT_NAME":"ONEWEB-0302","OBJECT_ID":"2021-075S","EPOCH":"2026-03-05T05:45:06.050304","MEAN_MOTION":13.1244182,"ECCENTRICITY":0.00021433,"INCLINATION":87.9004,"RA_OF_ASC_NODE":11.2929,"ARG_OF_PERICENTER":80.6208,"MEAN_ANOMALY":279.5163,"EPHEMERIS_TYPE":0,"CLASSIFICATION_TYPE":"U","NORAD_CAT_ID":49091,"ELEMENT_SET_NO":999,"REV_AT_EPOCH":22091,"BSTAR":0.00042389062,"MEAN_MOTION_DOT":1.65e-6,"MEAN_MOTION_DDOT":0},{"OBJECT_NAME":"ONEWEB-0304","OBJECT_ID":"2021-075T","EPOCH":"2026-03-05T06:54:15.531264","MEAN_MOTION":13.17648536,"ECCENTRICITY":0.00018935,"INCLINATION":87.9153,"RA_OF_ASC_NODE":26.5001,"ARG_OF_PERICENTER":78.4565,"MEAN_ANOMALY":281.6779,"EPHEMERIS_TYPE":0,"CLASSIFICATION_TYPE":"U","NORAD_CAT_ID":49092,"ELEMENT_SET_NO":999,"REV_AT_EPOCH":21989,"BSTAR":-2.819002e-6,"MEAN_MOTION_DOT":1.2e-7,"MEAN_MOTION_DDOT":0},{"OBJECT_NAME":"ONEWEB-0305","OBJECT_ID":"2021-075U","EPOCH":"2026-03-05T06:44:32.157600","MEAN_MOTION":13.1764882,"ECCENTRICITY":0.00019131,"INCLINATION":87.9152,"RA_OF_ASC_NODE":26.4801,"ARG_OF_PERICENTER":71.7425,"MEAN_ANOMALY":288.3915,"EPHEMERIS_TYPE":0,"CLASSIFICATION_TYPE":"U","NORAD_CAT_ID":49093,"ELEMENT_SET_NO":999,"REV_AT_EPOCH":21992,"BSTAR":-5.168866e-6,"MEAN_MOTION_DOT":1.1e-7,"MEAN_MOTION_DDOT":0},{"OBJECT_NAME":"ONEWEB-0308","OBJECT_ID":"2021-075V","EPOCH":"2026-03-05T05:35:20.380992","MEAN_MOTION":13.1244142,"ECCENTRICITY":0.00018225,"INCLINATION":87.9,"RA_OF_ASC_NODE":11.2875,"ARG_OF_PERICENTER":80.0412,"MEAN_ANOMALY":280.0922,"EPHEMERIS_TYPE":0,"CLASSIFICATION_TYPE":"U","NORAD_CAT_ID":49094,"ELEMENT_SET_NO":999,"REV_AT_EPOCH":22092,"BSTAR":0.00090616376,"MEAN_MOTION_DOT":3.39e-6,"MEAN_MOTION_DDOT":0},{"OBJECT_NAME":"ONEWEB-0309","OBJECT_ID":"2021-075W","EPOCH":"2026-03-04T19:53:18.722688","MEAN_MOTION":13.17649782,"ECCENTRICITY":0.00022953,"INCLINATION":87.9153,"RA_OF_ASC_NODE":26.5847,"ARG_OF_PERICENTER":82.7581,"MEAN_ANOMALY":277.3811,"EPHEMERIS_TYPE":0,"CLASSIFICATION_TYPE":"U","NORAD_CAT_ID":49095,"ELEMENT_SET_NO":999,"REV_AT_EPOCH":21983,"BSTAR":0.00028324207,"MEAN_MOTION_DOT":1.23e-6,"MEAN_MOTION_DDOT":0},{"OBJECT_NAME":"ONEWEB-0310","OBJECT_ID":"2021-075X","EPOCH":"2026-03-05T05:57:17.109216","MEAN_MOTION":13.1244329,"ECCENTRICITY":0.00018257,"INCLINATION":87.8994,"RA_OF_ASC_NODE":11.3149,"ARG_OF_PERICENTER":81.55,"MEAN_ANOMALY":278.5835,"EPHEMERIS_TYPE":0,"CLASSIFICATION_TYPE":"U","NORAD_CAT_ID":49096,"ELEMENT_SET_NO":999,"REV_AT_EPOCH":22155,"BSTAR":-0.000451298,"MEAN_MOTION_DOT":-1.5e-6,"MEAN_MOTION_DDOT":0},{"OBJECT_NAME":"ONEWEB-0311","OBJECT_ID":"2021-075Y","EPOCH":"2026-03-05T06:59:08.029824","MEAN_MOTION":13.17651301,"ECCENTRICITY":0.00017713,"INCLINATION":87.9154,"RA_OF_ASC_NODE":26.4875,"ARG_OF_PERICENTER":73.575,"MEAN_ANOMALY":286.5576,"EPHEMERIS_TYPE":0,"CLASSIFICATION_TYPE":"U","NORAD_CAT_ID":49097,"ELEMENT_SET_NO":999,"REV_AT_EPOCH":21994,"BSTAR":5.5571587e-5,"MEAN_MOTION_DOT":3.4e-7,"MEAN_MOTION_DDOT":0},{"OBJECT_NAME":"ONEWEB-0312","OBJECT_ID":"2021-075Z","EPOCH":"2026-03-05T07:20:58.564032","MEAN_MOTION":13.17648951,"ECCENTRICITY":0.00021395,"INCLINATION":87.9141,"RA_OF_ASC_NODE":26.5035,"ARG_OF_PERICENTER":73.1781,"MEAN_ANOMALY":286.9585,"EPHEMERIS_TYPE":0,"CLASSIFICATION_TYPE":"U","NORAD_CAT_ID":49098,"ELEMENT_SET_NO":999,"REV_AT_EPOCH":21992,"BSTAR":7.1472909e-5,"MEAN_MOTION_DOT":4.1e-7,"MEAN_MOTION_DDOT":0},{"OBJECT_NAME":"ONEWEB-0313","OBJECT_ID":"2021-075AA","EPOCH":"2026-03-05T07:28:04.700064","MEAN_MOTION":13.17648997,"ECCENTRICITY":0.00018573,"INCLINATION":87.9143,"RA_OF_ASC_NODE":26.5083,"ARG_OF_PERICENTER":77.1236,"MEAN_ANOMALY":283.0103,"EPHEMERIS_TYPE":0,"CLASSIFICATION_TYPE":"U","NORAD_CAT_ID":49099,"ELEMENT_SET_NO":999,"REV_AT_EPOCH":21991,"BSTAR":0.00015058951,"MEAN_MOTION_DOT":7.1e-7,"MEAN_MOTION_DDOT":0},{"OBJECT_NAME":"ONEWEB-0314","OBJECT_ID":"2021-075AB","EPOCH":"2026-03-05T03:00:58.130784","MEAN_MOTION":13.17650166,"ECCENTRICITY":0.00021097,"INCLINATION":87.9152,"RA_OF_ASC_NODE":26.5077,"ARG_OF_PERICENTER":72.8851,"MEAN_ANOMALY":287.2511,"EPHEMERIS_TYPE":0,"CLASSIFICATION_TYPE":"U","NORAD_CAT_ID":49100,"ELEMENT_SET_NO":999,"REV_AT_EPOCH":21986,"BSTAR":0.00019353824,"MEAN_MOTION_DOT":8.8e-7,"MEAN_MOTION_DDOT":0}]
